ORBCOMM FM37            
1 33064U 08031E   25281.18025213  .00002316  00000+0  32901-3 0  9997
2 33064  48.4383 166.3110 0005085 144.4660 354.4009 14.80211560930789
ORBCOMM FM40            
1 33065U 08031F   25281.39409941  .00002811  00000+0  37203-3 0  9995
2 33065  48.4397 147.3926 0006341 160.4072   9.9047 14.82593887930950
VESSELSAT 1             
1 37840U 11058C   25281.22023726  .00000403  00000+0  74961-4 0  9996
2 37840  19.9611 129.9105 0013618 350.3077   9.7064 14.11377669722295
ORBCOMM FM109           
1 40086U 14040A   25281.16719591  .00001038  00000+0  25837-3 0  9993
2 40086  47.0028 202.6430 0001021 157.7695 202.3235 14.58368727597551
ORBCOMM FM107           
1 40087U 14040B   25281.46396187  .00000924  00000+0  23354-3 0  9994
2 40087  47.0046 202.1580 0000664  41.2688 318.8248 14.58447057597678
ORBCOMM FM106           
1 40088U 14040C   25281.43118205  .00001717  00000+0  31574-3 0  9999
2 40088  47.0610  15.3151 0017604 234.4146 125.5105 14.69758224600135
ORBCOMM FM111           
1 40089U 14040D   25281.19483304  .00005519  00000+0  62715-3 0  9993
2 40089  47.0006 211.2202 0029558  12.9976 347.1676 14.87061635607045
ORBCOMM FM104           
1 40090U 14040E   25281.30303422  .00001098  00000+0  28000-3 0  9997
2 40090  47.0044 237.8951 0016591 358.9347   1.1500 14.56835567597110
